SAC-D
1 37673U 11024A   13349.45925949 +.00000000 +00000+0 +14057-4 6  9481
2 37673  98.0118 354.3026 0001704  78.8476 149.3411 14.72304962134739
